{
    "links": {
        "self": "http://www.neowsapp.com/rest/v1/neo/3555679?api_key=iIulBulltgU6a56xZRHN4H3l9WmuAYTsLGpBGhQ2"
    },
    "id": "3555679",
    "neo_reference_id": "3555679",
    "name": "(2011 BZ11)",
    "designation": "2011 BZ11",
    "nasa_jpl_url": "http://ssd.jpl.nasa.gov/sbdb.cgi?sstr=3555679",
    "absolute_magnitude_h": 25.7,
    "estimated_diameter": {
        "kilometers": {
            "estimated_diameter_min": 0.0192555078,
            "estimated_diameter_max": 0.0430566244
        },
        "meters": {
            "estimated_diameter_min": 19.2555078188,
            "estimated_diameter_max": 43.0566244241
        },
        "miles": {
            "estimated_diameter_min": 0.0119648141,
            "estimated_diameter_max": 0.0267541378
        },
        "feet": {
            "estimated_diameter_min": 63.1742402722,
            "estimated_diameter_max": 141.2618956756
        }
    },
    "is_potentially_hazardous_asteroid": false,
    "close_approach_data": [
        {
            "close_approach_date": "2011-01-22",
            "close_approach_date_full": "2011-Jan-22 02:38",
            "epoch_date_close_approach": 1295663880000,
            "relative_velocity": {
                "kilometers_per_second": "13.0144093637",
                "kilometers_per_hour": "46851.8737093265",
                "miles_per_hour": "29111.9323056646"
            },
            "miss_distance": {
                "astronomical": "0.0123953273",
                "lunar": "4.8217823197",
                "kilometers": "1854314.562032851",
                "miles": "1152217.6398053038"
            },
            "orbiting_body": "Earth"
        }
    ],
    "orbital_data": {
        "orbit_id": "6",
        "orbit_determination_date": "2017-04-06 08:54:50",
        "first_observation_date": "2011-01-26",
        "last_observation_date": "2011-01-26",
        "data_arc_in_days": null,
        "observations_used": 10,
        "orbit_uncertainty": "9",
        "minimum_orbit_intersection": ".00501402",
        "jupiter_tisserand_invariant": "4.625",
        "epoch_osculation": "2455588.5",
        "eccentricity": ".4718578801915863",
        "semi_major_axis": "1.40245701462962",
        "inclination": "2.551353034948882",
        "ascending_node_longitude": "317.68606063",
        "orbital_period": "606.6424058827861",
        "perihelion_distance": ".7406966206466672",
        "perihelion_argument": "87.08053512438039",
        "aphelion_distance": "2.064217408612573",
        "perihelion_time": "2455533.200116491774",
        "mean_anomaly": "32.8166278352917",
        "mean_motion": ".5934303248651535",
        "equinox": "J2000",
        "orbit_class": {
            "orbit_class_type": "APO",
            "orbit_class_description": "Near-Earth asteroid orbits which cross the Earth’s orbit similar to that of 1862 Apollo",
            "orbit_class_range": "a (semi-major axis) > 1.0 AU; q (perihelion) < 1.017 AU"
        }
    },
    "is_sentry_object": false
}